{"type": "FeatureCollection", "features": [{"type": "Feature", "properties": {"id": "grozny", "name": "Автодром \"Крепость Грозная\"", "source": "nominatim", "osm_type": "pitch"}, "geometry": {"type": "Polygon", "coordinates": [[[45.6512048, 43.3055124], [45.6525781, 43.3038572], [45.6524145, 43.3035996], [45.6542384, 43.3013509], [45.6558907, 43.3020654], [45.6569367, 43.3008746], [45.6651577, 43.3047005], [45.6616011, 43.3088774], [45.6602761, 43.308366], [45.6595465, 43.3093184], [45.6512048, 43.3055124]]]}, "bbox": [45.6512048, 43.3008746, 45.6651577, 43.3093184]}]}