{"type": "FeatureCollection", "features": [{"type": "Feature", "properties": {"id": "igora", "name": "Игора Драйв", "source": "nominatim", "osm_type": "sports_centre"}, "geometry": {"type": "Polygon", "coordinates": [[[30.1810347, 60.5166777], [30.189777, 60.5108024], [30.1928592, 60.506655], [30.1951755, 60.502691], [30.1983958, 60.5026333], [30.198707, 60.5027521], [30.1991469, 60.5027838], [30.1995116, 60.5027231], [30.1999998, 60.5024748], [30.2006674, 60.5023967], [30.2125568, 60.5025448], [30.2127531, 60.5027542], [30.2050338, 60.5094661], [30.2018734, 60.5147234], [30.2002772, 60.5164262], [30.1983319, 60.5187224], [30.1873859, 60.5204469], [30.1884694, 60.5193438], [30.1867882, 60.5183969], [30.1857047, 60.5190312], [30.1844905, 60.5175235], [30.1810347, 60.5166777]]]}, "bbox": [30.1810347, 60.5023967, 30.2127531, 60.5204469]}]}