{"type": "FeatureCollection", "features": [{"type": "Feature", "properties": {"id": "kazan", "name": "автодром KAZANRING", "source": "nominatim", "osm_type": "sports_centre"}, "geometry": {"type": "Polygon", "coordinates": [[[49.2534424, 55.8641262], [49.2541537, 55.8637626], [49.2568013, 55.8629646], [49.2586263, 55.8626871], [49.2596649, 55.8628807], [49.2607242, 55.8639088], [49.2631431, 55.8669731], [49.2667425, 55.8702588], [49.2672405, 55.8708166], [49.2660544, 55.8712475], [49.2646679, 55.8719224], [49.2634864, 55.8721955], [49.2614602, 55.8716304], [49.2610186, 55.8714652], [49.2600828, 55.8709461], [49.2591365, 55.8704092], [49.2581377, 55.8702795], [49.2562339, 55.8689611], [49.2550229, 55.8674098], [49.2535265, 55.8652198], [49.2534424, 55.8641262]]]}, "bbox": [49.2534424, 55.8626871, 49.2672405, 55.8721955]}]}