{"type": "FeatureCollection", "features": [{"type": "Feature", "properties": {"id": "moscow", "name": "Moscow Raceway", "source": "nominatim-facility"}, "geometry": {"type": "Polygon", "coordinates": [[[36.24827, 55.9968], [36.2489496, 55.9966213], [36.2493224, 55.996822], [36.2498801, 55.9965828], [36.2516729, 55.9966764], [36.2532623, 55.9964533], [36.2537063, 55.9960342], [36.2548997, 55.9957703], [36.2565093, 55.9958014], [36.2569256, 55.9963446], [36.2562318, 55.9968878], [36.2569811, 55.9973224], [36.258785, 55.9968723], [36.2581189, 55.9952426], [36.2622117, 55.9944829], [36.2626415, 55.9944228], [36.2629606, 55.9943409], [36.2672809, 55.9932928], [36.2676565, 55.9924589], [36.2693339, 55.9911704], [36.2691769, 55.990639], [36.2700641, 55.9905787], [36.2702115, 55.9909514], [36.2716339, 55.9908439], [36.2714545, 55.9900806], [36.2777921, 55.9892974], [36.2776835, 55.9902447], [36.2753844, 55.9919687], [36.2742678, 55.9921454], [36.2734285, 55.9929504], [36.2730027, 55.994116], [36.2724549, 55.9943279], [36.2725278, 55.9956243], [36.2734128, 55.9956344], [36.2738624, 55.9966806], [36.2730645, 55.9974178], [36.272157, 55.9979769], [36.2721068, 55.9983797], [36.2716285, 55.998975], [36.271286, 55.9991017], [36.2708942, 55.9993272], [36.2705397, 55.9994263], [36.2700217, 55.999375], [36.2697815, 55.999519], [36.2696749, 55.9997774], [36.2696868, 55.9999496], [36.2692886, 56.0000487], [36.2688338, 55.9999098], [36.2680875, 55.9999198], [36.2670806, 55.9992654], [36.266434, 55.999442], [36.2641596, 55.9984285], [36.2626314, 55.9987133], [36.2619158, 55.9982273], [36.2612619, 55.9981685], [36.2609799, 55.9984194], [36.2607667, 55.99885], [36.2603392, 55.9993625], [36.2573022, 56.0015722], [36.2538873, 56.0011479], [36.2538331, 56.000178], [36.2516084, 55.9998059], [36.251394, 55.9990565], [36.2527491, 55.9986624], [36.2526949, 55.9982077], [36.2527684, 55.9981359], [36.24879, 55.99731], [36.24827, 55.9968]]]}, "bbox": [36.24827, 55.9892974, 36.2777921, 56.0015722]}]}