{"type": "FeatureCollection", "features": [{"type": "Feature", "properties": {"id": "nring", "name": "Нижегородское кольцо", "source": "nominatim", "osm_type": "sports_centre"}, "geometry": {"type": "Polygon", "coordinates": [[[43.594024, 56.1177597], [43.5950672, 56.1175792], [43.5975659, 56.1171994], [43.6031837, 56.1169665], [43.6050694, 56.1168677], [43.606574, 56.1167158], [43.6078564, 56.1164744], [43.6090739, 56.1173709], [43.6091119, 56.1174134], [43.6092023, 56.1174743], [43.6099156, 56.1178004], [43.6100297, 56.1178746], [43.6102627, 56.1180655], [43.6102627, 56.1182564], [43.6104006, 56.1183836], [43.6106098, 56.1184897], [43.6107145, 56.1186381], [43.6108238, 56.1186567], [43.6109808, 56.1187839], [43.6111187, 56.1187892], [43.6112661, 56.1188343], [43.6113231, 56.1188608], [43.6113231, 56.1189191], [43.6112756, 56.118996], [43.6111615, 56.1190888], [43.6110331, 56.1191444], [43.6108952, 56.1191471], [43.6103103, 56.1192452], [43.6099584, 56.1193804], [43.6098633, 56.1195182], [43.6097254, 56.1196799], [43.6095684, 56.1197701], [43.6093212, 56.1198443], [43.6090026, 56.1198947], [43.6088336, 56.1203108], [43.60737, 56.1207659], [43.606901, 56.1207283], [43.606765, 56.1207174], [43.6030055, 56.1217702], [43.6017239, 56.1222137], [43.6014303, 56.1220934], [43.6010373, 56.1218921], [43.6008195, 56.1217831], [43.6007331, 56.1217578], [43.600326, 56.1217862], [43.6001668, 56.1218346], [43.6000442, 56.1218869], [43.599917, 56.1222821], [43.599842, 56.1226286], [43.599782, 56.122996], [43.5995443, 56.123391], [43.599318, 56.1237147], [43.598701, 56.1244667], [43.5976632, 56.1237145], [43.5977105, 56.1235937], [43.5980372, 56.123278], [43.5977714, 56.1231609], [43.597442, 56.1231677], [43.5971918, 56.1230374], [43.5969694, 56.1227755], [43.5968477, 56.1227007], [43.5966367, 56.1223981], [43.5964106, 56.1220542], [43.5961894, 56.1216968], [43.5958943, 56.1212208], [43.594024, 56.1177597]]]}, "bbox": [43.594024, 56.1164744, 43.6113231, 56.1244667]}]}