{"type": "FeatureCollection", "features": [{"type": "Feature", "properties": {"id": "redring", "name": "Красное кольцо", "source": "nominatim", "osm_type": "sports_centre"}, "geometry": {"type": "Polygon", "coordinates": [[[92.7370359, 56.1302014], [92.7376414, 56.1247322], [92.739064, 56.1247896], [92.7393515, 56.1224443], [92.7394761, 56.1224485], [92.7456112, 56.1225458], [92.7445355, 56.1322037], [92.73886, 56.1320103], [92.7373184, 56.130925], [92.7370359, 56.1302014]]]}, "bbox": [92.7370359, 56.1224443, 92.7456112, 56.1322037]}]}