{"type": "FeatureCollection", "features": [{"type": "Feature", "properties": {"id": "smolensk", "name": "Автодром «Смоленское кольцо»", "source": "nominatim", "osm_type": "sports_centre"}, "geometry": {"type": "Polygon", "coordinates": [[[33.3614035, 54.9870765], [33.3621599, 54.9869808], [33.3630182, 54.9869439], [33.3641179, 54.9868878], [33.3651479, 54.9868632], [33.3661135, 54.9868017], [33.3670791, 54.9868017], [33.3676745, 54.9869069], [33.3681895, 54.9871532], [33.368962, 54.9875225], [33.3695896, 54.9878605], [33.3702763, 54.9882667], [33.3711693, 54.9885582], [33.3718159, 54.9886551], [33.3726366, 54.988673], [33.3729102, 54.9888029], [33.3734091, 54.9891777], [33.37379, 54.9895046], [33.3738383, 54.9896825], [33.3734734, 54.9912466], [33.3730497, 54.9911019], [33.3723362, 54.9909819], [33.3711829, 54.9908427], [33.3694662, 54.9906334], [33.3683075, 54.9904826], [33.3670737, 54.9905633], [33.3664783, 54.9905504], [33.3659311, 54.9904313], [33.3656253, 54.9900395], [33.3652445, 54.9896465], [33.3648207, 54.9894218], [33.3636995, 54.98883], [33.3628197, 54.9883015], [33.3621331, 54.9877998], [33.361779, 54.9874366], [33.3614035, 54.9870765]]]}, "bbox": [33.3614035, 54.9868017, 33.3738383, 54.9912466]}]}